ATLAS CENTAUR R/B       
1 06155U 72065B   26055.24749512  .00001346  00000+0  18641-3 0  9995
2 06155  35.0026  24.5254 0034443 257.1905 102.4946 14.77643061839278
SL-8 R/B                
1 08459U 75112B   26055.28677267  .00000172  00000+0  65289-4 0  9998
2 08459  74.0601  43.5671 0014777 142.0261 218.1938 14.38195086629941
SL-3 R/B                
1 10114U 77057B   26055.24982492  .00012364  00000+0  26334-3 0  9997
2 10114  97.5759 226.5846 0006816 339.7482  20.3494 15.45067836666253
SEASAT 1                
1 10967U 78064A   26055.07665073  .00000193  00000+0  92520-4 0  9994
2 10967 108.0142  96.9328 0001978 290.8814  69.2120 14.46148461504542
SL-14 R/B               
1 11267U 79011B   26055.23348274  .00000532  00000+0  49969-4 0  9996
2 11267  82.5230 109.3416 0017610 101.7357 258.5840 14.91890724526776
SL-8 R/B                
1 11574U 79089B   26055.28974258  .00000233  00000+0  78471-4 0  9992
2 11574  74.0683 115.8501 0017019 289.9258  70.0065 14.42341670434179
SL-14 R/B               
1 11672U 80005B   26055.23765785  .00000612  00000+0  59362-4 0  9998
2 11672  82.5166 319.9942 0014974 203.2035 156.8510 14.90912018474482
SL-8 R/B                
1 12139U 81003B   26055.15668827  .00015641  00000+0  40815-3 0  9996
2 12139  82.9394 302.5326 0262694 225.6863 132.2566 15.10424322312639
SL-3 R/B                
1 12465U 81046B   26055.22032124  .00012230  00000+0  28780-3 0  9996
2 12465  81.2322 305.9122 0020580  67.1376 293.2037 15.41600896436352
SL-3 R/B                
1 12904U 81103B   26055.22274456  .00006181  00000+0  27554-3 0  9990
2 12904  81.1569 229.2290 0012827 334.7111  25.3490 15.21192478971183
SL-3 R/B                
1 13068U 82013B   26055.30229428  .00004986  00000+0  21685-3 0  9991
2 13068  81.1758 176.4558 0021956 223.1610 136.7902 15.21854466402314
SL-3 R/B                
1 13154U 82039B   26055.20526250  .00002631  00000+0  15893-3 0  9996
2 13154  81.1589 231.5068 0029964   8.4855 351.6870 15.09993384379609
