CCSDS_OMM_VERS = 2.0
CREATION_DATE  = 
ORIGINATOR     = 

OBJECT_NAME    = ATLAS CENTAUR R/B
OBJECT_ID      = 1972-065B
CENTER_NAME    = EARTH
REF_FRAME      = TEME
TIME_SYSTEM    = UTC
MEAN_ELEMENT_THEORY = SGP/SGP4

EPOCH          = 2026-02-24T05:56:23.578368
MEAN_MOTION    = 14.77643061
ECCENTRICITY   = .00344438
INCLINATION    = 35.0026
RA_OF_ASC_NODE = 24.5254
ARG_OF_PERICENTER = 257.1905
MEAN_ANOMALY   = 102.4946

EPHEMERIS_TYPE = 0
CLASSIFICATION_TYPE = U
NORAD_CAT_ID   = 6155
ELEMENT_SET_NO = 999
REV_AT_EPOCH   = 83927
BSTAR          = .18641036E-3
MEAN_MOTION_DOT = .1346E-4
MEAN_MOTION_DDOT = 0

CCSDS_OMM_VERS = 2.0
CREATION_DATE  = 
ORIGINATOR     = 

OBJECT_NAME    = SL-8 R/B
OBJECT_ID      = 1975-112B
CENTER_NAME    = EARTH
REF_FRAME      = TEME
TIME_SYSTEM    = UTC
MEAN_ELEMENT_THEORY = SGP/SGP4

EPOCH          = 2026-02-24T06:52:57.158688
MEAN_MOTION    = 14.38195086
ECCENTRICITY   = .00147776
INCLINATION    = 74.0601
RA_OF_ASC_NODE = 43.5671
ARG_OF_PERICENTER = 142.0261
MEAN_ANOMALY   = 218.1938

EPHEMERIS_TYPE = 0
CLASSIFICATION_TYPE = U
NORAD_CAT_ID   = 8459
ELEMENT_SET_NO = 999
REV_AT_EPOCH   = 62994
BSTAR          = .65288944E-4
MEAN_MOTION_DOT = .172E-5
MEAN_MOTION_DDOT = 0

CCSDS_OMM_VERS = 2.0
CREATION_DATE  = 
ORIGINATOR     = 

OBJECT_NAME    = SL-3 R/B
OBJECT_ID      = 1977-057B
CENTER_NAME    = EARTH
REF_FRAME      = TEME
TIME_SYSTEM    = UTC
MEAN_ELEMENT_THEORY = SGP/SGP4

EPOCH          = 2026-02-24T05:59:44.873088
MEAN_MOTION    = 15.45067836
ECCENTRICITY   = .00068164
INCLINATION    = 97.5759
RA_OF_ASC_NODE = 226.5846
ARG_OF_PERICENTER = 339.7482
MEAN_ANOMALY   = 20.3494

EPHEMERIS_TYPE = 0
CLASSIFICATION_TYPE = U
NORAD_CAT_ID   = 10114
ELEMENT_SET_NO = 999
REV_AT_EPOCH   = 66625
BSTAR          = .26334117E-3
MEAN_MOTION_DOT = .12364E-3
MEAN_MOTION_DDOT = 0

CCSDS_OMM_VERS = 2.0
CREATION_DATE  = 
ORIGINATOR     = 

OBJECT_NAME    = SEASAT 1
OBJECT_ID      = 1978-064A
CENTER_NAME    = EARTH
REF_FRAME      = TEME
TIME_SYSTEM    = UTC
MEAN_ELEMENT_THEORY = SGP/SGP4

EPOCH          = 2026-02-24T01:50:22.623072
MEAN_MOTION    = 14.46148461
ECCENTRICITY   = .00019783
INCLINATION    = 108.0142
RA_OF_ASC_NODE = 96.9328
ARG_OF_PERICENTER = 290.8814
MEAN_ANOMALY   = 69.2120

EPHEMERIS_TYPE = 0
CLASSIFICATION_TYPE = U
NORAD_CAT_ID   = 10967
ELEMENT_SET_NO = 999
REV_AT_EPOCH   = 50454
BSTAR          = .92519672E-4
MEAN_MOTION_DOT = .193E-5
MEAN_MOTION_DDOT = 0

CCSDS_OMM_VERS = 2.0
CREATION_DATE  = 
ORIGINATOR     = 

OBJECT_NAME    = SL-14 R/B
OBJECT_ID      = 1979-011B
CENTER_NAME    = EARTH
REF_FRAME      = TEME
TIME_SYSTEM    = UTC
MEAN_ELEMENT_THEORY = SGP/SGP4

EPOCH          = 2026-02-24T05:36:12.908736
MEAN_MOTION    = 14.91890724
ECCENTRICITY   = .00176103
INCLINATION    = 82.5230
RA_OF_ASC_NODE = 109.3416
ARG_OF_PERICENTER = 101.7357
MEAN_ANOMALY   = 258.5840

EPHEMERIS_TYPE = 0
CLASSIFICATION_TYPE = U
NORAD_CAT_ID   = 11267
ELEMENT_SET_NO = 999
REV_AT_EPOCH   = 52677
BSTAR          = .49969229E-4
MEAN_MOTION_DOT = .532E-5
MEAN_MOTION_DDOT = 0

CCSDS_OMM_VERS = 2.0
CREATION_DATE  = 
ORIGINATOR     = 

OBJECT_NAME    = SL-8 R/B
OBJECT_ID      = 1979-089B
CENTER_NAME    = EARTH
REF_FRAME      = TEME
TIME_SYSTEM    = UTC
MEAN_ELEMENT_THEORY = SGP/SGP4

EPOCH          = 2026-02-24T06:57:13.758912
MEAN_MOTION    = 14.42341670
ECCENTRICITY   = .00170198
INCLINATION    = 74.0683
RA_OF_ASC_NODE = 115.8501
ARG_OF_PERICENTER = 289.9258
MEAN_ANOMALY   = 70.0065

EPHEMERIS_TYPE = 0
CLASSIFICATION_TYPE = U
NORAD_CAT_ID   = 11574
ELEMENT_SET_NO = 999
REV_AT_EPOCH   = 43417
BSTAR          = .7847133E-4
MEAN_MOTION_DOT = .233E-5
MEAN_MOTION_DDOT = 0

CCSDS_OMM_VERS = 2.0
CREATION_DATE  = 
ORIGINATOR     = 

OBJECT_NAME    = SL-14 R/B
OBJECT_ID      = 1980-005B
CENTER_NAME    = EARTH
REF_FRAME      = TEME
TIME_SYSTEM    = UTC
MEAN_ELEMENT_THEORY = SGP/SGP4

EPOCH          = 2026-02-24T05:42:13.638240
MEAN_MOTION    = 14.90912018
ECCENTRICITY   = .00149743
INCLINATION    = 82.5166
RA_OF_ASC_NODE = 319.9942
ARG_OF_PERICENTER = 203.2035
MEAN_ANOMALY   = 156.8510

EPHEMERIS_TYPE = 0
CLASSIFICATION_TYPE = U
NORAD_CAT_ID   = 11672
ELEMENT_SET_NO = 999
REV_AT_EPOCH   = 47448
BSTAR          = .59362239E-4
MEAN_MOTION_DOT = .612E-5
MEAN_MOTION_DDOT = 0

CCSDS_OMM_VERS = 2.0
CREATION_DATE  = 
ORIGINATOR     = 

OBJECT_NAME    = SL-8 R/B
OBJECT_ID      = 1981-003B
CENTER_NAME    = EARTH
REF_FRAME      = TEME
TIME_SYSTEM    = UTC
MEAN_ELEMENT_THEORY = SGP/SGP4

EPOCH          = 2026-02-24T03:45:37.866528
MEAN_MOTION    = 15.10424322
ECCENTRICITY   = .02626949
INCLINATION    = 82.9394
RA_OF_ASC_NODE = 302.5326
ARG_OF_PERICENTER = 225.6863
MEAN_ANOMALY   = 132.2566

EPHEMERIS_TYPE = 0
CLASSIFICATION_TYPE = U
NORAD_CAT_ID   = 12139
ELEMENT_SET_NO = 999
REV_AT_EPOCH   = 31263
BSTAR          = .40815478E-3
MEAN_MOTION_DOT = .15641E-3
MEAN_MOTION_DDOT = 0

CCSDS_OMM_VERS = 2.0
CREATION_DATE  = 
ORIGINATOR     = 

OBJECT_NAME    = SL-3 R/B
OBJECT_ID      = 1981-046B
CENTER_NAME    = EARTH
REF_FRAME      = TEME
TIME_SYSTEM    = UTC
MEAN_ELEMENT_THEORY = SGP/SGP4

EPOCH          = 2026-02-24T05:17:15.755136
MEAN_MOTION    = 15.41600896
ECCENTRICITY   = .00205801
INCLINATION    = 81.2322
RA_OF_ASC_NODE = 305.9122
ARG_OF_PERICENTER = 67.1376
MEAN_ANOMALY   = 293.2037

EPHEMERIS_TYPE = 0
CLASSIFICATION_TYPE = U
NORAD_CAT_ID   = 12465
ELEMENT_SET_NO = 999
REV_AT_EPOCH   = 43635
BSTAR          = .2877955E-3
MEAN_MOTION_DOT = .1223E-3
MEAN_MOTION_DDOT = 0

CCSDS_OMM_VERS = 2.0
CREATION_DATE  = 
ORIGINATOR     = 

OBJECT_NAME    = SL-3 R/B
OBJECT_ID      = 1981-103B
CENTER_NAME    = EARTH
REF_FRAME      = TEME
TIME_SYSTEM    = UTC
MEAN_ELEMENT_THEORY = SGP/SGP4

EPOCH          = 2026-02-24T05:20:45.129984
MEAN_MOTION    = 15.21192478
ECCENTRICITY   = .00128275
INCLINATION    = 81.1569
RA_OF_ASC_NODE = 229.2290
ARG_OF_PERICENTER = 334.7111
MEAN_ANOMALY   = 25.3490

EPHEMERIS_TYPE = 0
CLASSIFICATION_TYPE = U
NORAD_CAT_ID   = 12904
ELEMENT_SET_NO = 999
REV_AT_EPOCH   = 97118
BSTAR          = .27553839E-3
MEAN_MOTION_DOT = .6181E-4
MEAN_MOTION_DDOT = 0

CCSDS_OMM_VERS = 2.0
CREATION_DATE  = 
ORIGINATOR     = 

OBJECT_NAME    = SL-3 R/B
OBJECT_ID      = 1982-013B
CENTER_NAME    = EARTH
REF_FRAME      = TEME
TIME_SYSTEM    = UTC
MEAN_ELEMENT_THEORY = SGP/SGP4

EPOCH          = 2026-02-24T07:15:18.225792
MEAN_MOTION    = 15.21854466
ECCENTRICITY   = .00219567
INCLINATION    = 81.1758
RA_OF_ASC_NODE = 176.4558
ARG_OF_PERICENTER = 223.1610
MEAN_ANOMALY   = 136.7902

EPHEMERIS_TYPE = 0
CLASSIFICATION_TYPE = U
NORAD_CAT_ID   = 13068
ELEMENT_SET_NO = 999
REV_AT_EPOCH   = 40231
BSTAR          = .21684744E-3
MEAN_MOTION_DOT = .4986E-4
MEAN_MOTION_DDOT = 0

CCSDS_OMM_VERS = 2.0
CREATION_DATE  = 
ORIGINATOR     = 

OBJECT_NAME    = SL-3 R/B
OBJECT_ID      = 1982-039B
CENTER_NAME    = EARTH
REF_FRAME      = TEME
TIME_SYSTEM    = UTC
MEAN_ELEMENT_THEORY = SGP/SGP4

EPOCH          = 2026-02-24T04:55:34.680000
MEAN_MOTION    = 15.09993384
ECCENTRICITY   = .00299649
INCLINATION    = 81.1589
RA_OF_ASC_NODE = 231.5068
ARG_OF_PERICENTER = 8.4855
MEAN_ANOMALY   = 351.6870

EPHEMERIS_TYPE = 0
CLASSIFICATION_TYPE = U
NORAD_CAT_ID   = 13154
ELEMENT_SET_NO = 999
REV_AT_EPOCH   = 37960
BSTAR          = .15892862E-3
MEAN_MOTION_DOT = .2631E-4
MEAN_MOTION_DDOT = 0

